ONEWEB-0675             
1 55834U 23029AQ  26068.96305701 -.00000048  00000+0 -15230-3 0  9991
2 55834  87.9222 324.7495 0001957  74.7124 285.4225 13.19724685145833
ONEWEB-0720             
1 55835U 23029AR  26069.41006162  .00001318  00000+0  32583-2 0  9990
2 55835  87.9244 324.6615 0001694  93.2545 266.8781 13.19727963145812
ONEWEB-0537             
1 56046U 23043A   26069.47453590  .00000056  00000+0  11366-3 0  9993
2 56046  87.9004 248.4049 0001654  88.9837 271.1484 13.16592901145971
ONEWEB-0538             
1 56047U 23043B   26069.46821409  .00000095  00000+0  21584-3 0  9997
2 56047  87.9002 248.4085 0001917  94.5638 265.5712 13.16593669145988
ONEWEB-0546             
1 56048U 23043C   26069.53154506 -.00000016  00000+0 -75712-4 0  9991
2 56048  87.9008 248.3940 0001716  73.2839 286.8480 13.16593869145988
ONEWEB-0547             
1 56049U 23043D   26069.46509271  .00000010  00000+0 -75026-5 0  9999
2 56049  87.9164 263.6564 0001742  92.7835 267.3498 13.21824603145189
ONEWEB-0548             
1 56050U 23043E   26069.55608876  .00000128  00000+0  30168-3 0  9997
2 56050  87.9004 248.3883 0001177 104.7981 255.3280 13.16592391145980
ONEWEB-0549             
1 56051U 23043F   26069.53339102  .00000053  00000+0  96587-4 0  9994
2 56051  87.9163 263.6549 0001888  95.3214 264.8136 13.21827019145191
ONEWEB-0550             
1 56052U 23043G   26069.52021346  .00000047  00000+0  82056-4 0  9991
2 56052  87.9164 263.6528 0001515  90.9719 269.1588 13.21824664145190
ONEWEB-0551             
1 56053U 23043H   26069.50888241 -.00000002  00000+0 -38591-4 0  9993
2 56053  87.8938 278.9317 0001897  92.4663 267.6685 13.15548553143420
ONEWEB-0552             
1 56054U 23043J   26069.51528956  .00000042  00000+0  69742-4 0  9993
2 56054  87.9163 263.6620 0001676 101.3115 258.8207 13.21825713145198
ONEWEB-0553             
1 56055U 23043K   26069.53787589  .00000064  00000+0  13323-3 0  9992
2 56055  87.9003 248.3950 0001456  82.5632 277.5664 13.16593228145998
ONEWEB-0554             
1 56056U 23043L   26069.52520772 -.00000004  00000+0 -45330-4 0  9991
2 56056  87.9002 248.4077 0001306  98.3258 261.8020 13.16593229145973
ONEWEB-0555             
1 56057U 23043M   26069.48721432  .00000014  00000+0  34773-5 0  9992
2 56057  87.9006 248.4004 0001542  75.4753 284.6549 13.16593568145971
ONEWEB-0557             
1 56058U 23043N   26069.50145848  .00000047  00000+0  90486-4 0  9995
2 56058  87.9007 248.4091 0000563  51.6997 308.4184 13.16594240145975
ONEWEB-0558             
1 56059U 23043P   26069.50870106  .00000052  00000+0  94487-4 0  9999
2 56059  87.9165 263.6560 0002146  95.6555 264.4824 13.21826430145201
ONEWEB-0559             
1 56060U 23043Q   26069.49717268 -.00000047  00000+0 -14531-3 0  9995
2 56060  87.9164 263.6522 0001832  99.1763 260.9579 13.21823501145216
