[{"OBJECT_NAME":"ONEWEB-0675","OBJECT_ID":"2023-029AQ","EPOCH":"2026-03-09T23:06:48.125664","MEAN_MOTION":13.19724685,"ECCENTRICITY":0.0001957,"INCLINATION":87.9222,"RA_OF_ASC_NODE":324.7495,"ARG_OF_PERICENTER":74.7124,"MEAN_ANOMALY":285.4225,"EPHEMERIS_TYPE":0,"CLASSIFICATION_TYPE":"U","NORAD_CAT_ID":55834,"ELEMENT_SET_NO":999,"REV_AT_EPOCH":14583,"BSTAR":-0.0001523,"MEAN_MOTION_DOT":-4.8e-7,"MEAN_MOTION_DDOT":0},{"OBJECT_NAME":"ONEWEB-0720","OBJECT_ID":"2023-029AR","EPOCH":"2026-03-10T09:50:29.323968","MEAN_MOTION":13.19727963,"ECCENTRICITY":0.0001694,"INCLINATION":87.9244,"RA_OF_ASC_NODE":324.6615,"ARG_OF_PERICENTER":93.2545,"MEAN_ANOMALY":266.8781,"EPHEMERIS_TYPE":0,"CLASSIFICATION_TYPE":"U","NORAD_CAT_ID":55835,"ELEMENT_SET_NO":999,"REV_AT_EPOCH":14581,"BSTAR":0.0032583,"MEAN_MOTION_DOT":1.318e-5,"MEAN_MOTION_DDOT":0},{"OBJECT_NAME":"ONEWEB-0537","OBJECT_ID":"2023-043A","EPOCH":"2026-03-10T11:23:19.901760","MEAN_MOTION":13.16592901,"ECCENTRICITY":0.0001654,"INCLINATION":87.9004,"RA_OF_ASC_NODE":248.4049,"ARG_OF_PERICENTER":88.9837,"MEAN_ANOMALY":271.1484,"EPHEMERIS_TYPE":0,"CLASSIFICATION_TYPE":"U","NORAD_CAT_ID":56046,"ELEMENT_SET_NO":999,"REV_AT_EPOCH":14597,"BSTAR":0.00011366,"MEAN_MOTION_DOT":5.6e-7,"MEAN_MOTION_DDOT":0},{"OBJECT_NAME":"ONEWEB-0538","OBJECT_ID":"2023-043B","EPOCH":"2026-03-10T11:14:13.697376","MEAN_MOTION":13.16593669,"ECCENTRICITY":0.0001917,"INCLINATION":87.9002,"RA_OF_ASC_NODE":248.4085,"ARG_OF_PERICENTER":94.5638,"MEAN_ANOMALY":265.5712,"EPHEMERIS_TYPE":0,"CLASSIFICATION_TYPE":"U","NORAD_CAT_ID":56047,"ELEMENT_SET_NO":999,"REV_AT_EPOCH":14598,"BSTAR":0.00021584,"MEAN_MOTION_DOT":9.5e-7,"MEAN_MOTION_DDOT":0},{"OBJECT_NAME":"ONEWEB-0546","OBJECT_ID":"2023-043C","EPOCH":"2026-03-10T12:45:25.493184","MEAN_MOTION":13.16593869,"ECCENTRICITY":0.0001716,"INCLINATION":87.9008,"RA_OF_ASC_NODE":248.394,"ARG_OF_PERICENTER":73.2839,"MEAN_ANOMALY":286.848,"EPHEMERIS_TYPE":0,"CLASSIFICATION_TYPE":"U","NORAD_CAT_ID":56048,"ELEMENT_SET_NO":999,"REV_AT_EPOCH":14598,"BSTAR":-7.5712e-5,"MEAN_MOTION_DOT":-1.6e-7,"MEAN_MOTION_DDOT":0},{"OBJECT_NAME":"ONEWEB-0547","OBJECT_ID":"2023-043D","EPOCH":"2026-03-10T11:09:44.010144","MEAN_MOTION":13.21824603,"ECCENTRICITY":0.0001742,"INCLINATION":87.9164,"RA_OF_ASC_NODE":263.6564,"ARG_OF_PERICENTER":92.7835,"MEAN_ANOMALY":267.3498,"EPHEMERIS_TYPE":0,"CLASSIFICATION_TYPE":"U","NORAD_CAT_ID":56049,"ELEMENT_SET_NO":999,"REV_AT_EPOCH":14518,"BSTAR":-7.5026e-6,"MEAN_MOTION_DOT":1.0e-7,"MEAN_MOTION_DDOT":0},{"OBJECT_NAME":"ONEWEB-0548","OBJECT_ID":"2023-043E","EPOCH":"2026-03-10T13:20:46.068864","MEAN_MOTION":13.16592391,"ECCENTRICITY":0.0001177,"INCLINATION":87.9004,"RA_OF_ASC_NODE":248.3883,"ARG_OF_PERICENTER":104.7981,"MEAN_ANOMALY":255.328,"EPHEMERIS_TYPE":0,"CLASSIFICATION_TYPE":"U","NORAD_CAT_ID":56050,"ELEMENT_SET_NO":999,"REV_AT_EPOCH":14598,"BSTAR":0.00030168,"MEAN_MOTION_DOT":1.28e-6,"MEAN_MOTION_DDOT":0},{"OBJECT_NAME":"ONEWEB-0549","OBJECT_ID":"2023-043F","EPOCH":"2026-03-10T12:48:04.984128","MEAN_MOTION":13.21827019,"ECCENTRICITY":0.0001888,"INCLINATION":87.9163,"RA_OF_ASC_NODE":263.6549,"ARG_OF_PERICENTER":95.3214,"MEAN_ANOMALY":264.8136,"EPHEMERIS_TYPE":0,"CLASSIFICATION_TYPE":"U","NORAD_CAT_ID":56051,"ELEMENT_SET_NO":999,"REV_AT_EPOCH":14519,"BSTAR":9.6587e-5,"MEAN_MOTION_DOT":5.3e-7,"MEAN_MOTION_DDOT":0},{"OBJECT_NAME":"ONEWEB-0550","OBJECT_ID":"2023-043G","EPOCH":"2026-03-10T12:29:06.442944","MEAN_MOTION":13.21824664,"ECCENTRICITY":0.0001515,"INCLINATION":87.9164,"RA_OF_ASC_NODE":263.6528,"ARG_OF_PERICENTER":90.9719,"MEAN_ANOMALY":269.1588,"EPHEMERIS_TYPE":0,"CLASSIFICATION_TYPE":"U","NORAD_CAT_ID":56052,"ELEMENT_SET_NO":999,"REV_AT_EPOCH":14519,"BSTAR":8.2056e-5,"MEAN_MOTION_DOT":4.7e-7,"MEAN_MOTION_DDOT":0},{"OBJECT_NAME":"ONEWEB-0551","OBJECT_ID":"2023-043H","EPOCH":"2026-03-10T12:12:47.440224","MEAN_MOTION":13.15548553,"ECCENTRICITY":0.0001897,"INCLINATION":87.8938,"RA_OF_ASC_NODE":278.9317,"ARG_OF_PERICENTER":92.4663,"MEAN_ANOMALY":267.6685,"EPHEMERIS_TYPE":0,"CLASSIFICATION_TYPE":"U","NORAD_CAT_ID":56053,"ELEMENT_SET_NO":999,"REV_AT_EPOCH":14342,"BSTAR":-3.8591e-5,"MEAN_MOTION_DOT":-2.0e-8,"MEAN_MOTION_DDOT":0},{"OBJECT_NAME":"ONEWEB-0552","OBJECT_ID":"2023-043J","EPOCH":"2026-03-10T12:22:01.017984","MEAN_MOTION":13.21825713,"ECCENTRICITY":0.0001676,"INCLINATION":87.9163,"RA_OF_ASC_NODE":263.662,"ARG_OF_PERICENTER":101.3115,"MEAN_ANOMALY":258.8207,"EPHEMERIS_TYPE":0,"CLASSIFICATION_TYPE":"U","NORAD_CAT_ID":56054,"ELEMENT_SET_NO":999,"REV_AT_EPOCH":14519,"BSTAR":6.9742e-5,"MEAN_MOTION_DOT":4.2e-7,"MEAN_MOTION_DDOT":0},{"OBJECT_NAME":"ONEWEB-0553","OBJECT_ID":"2023-043K","EPOCH":"2026-03-10T12:54:32.476896","MEAN_MOTION":13.16593228,"ECCENTRICITY":0.0001456,"INCLINATION":87.9003,"RA_OF_ASC_NODE":248.395,"ARG_OF_PERICENTER":82.5632,"MEAN_ANOMALY":277.5664,"EPHEMERIS_TYPE":0,"CLASSIFICATION_TYPE":"U","NORAD_CAT_ID":56055,"ELEMENT_SET_NO":999,"REV_AT_EPOCH":14599,"BSTAR":0.00013323,"MEAN_MOTION_DOT":6.4e-7,"MEAN_MOTION_DDOT":0},{"OBJECT_NAME":"ONEWEB-0554","OBJECT_ID":"2023-043L","EPOCH":"2026-03-10T12:36:17.947008","MEAN_MOTION":13.16593229,"ECCENTRICITY":0.0001306,"INCLINATION":87.9002,"RA_OF_ASC_NODE":248.4077,"ARG_OF_PERICENTER":98.3258,"MEAN_ANOMALY":261.802,"EPHEMERIS_TYPE":0,"CLASSIFICATION_TYPE":"U","NORAD_CAT_ID":56056,"ELEMENT_SET_NO":999,"REV_AT_EPOCH":14597,"BSTAR":-4.533e-5,"MEAN_MOTION_DOT":-4.0e-8,"MEAN_MOTION_DDOT":0},{"OBJECT_NAME":"ONEWEB-0555","OBJECT_ID":"2023-043M","EPOCH":"2026-03-10T11:41:35.317248","MEAN_MOTION":13.16593568,"ECCENTRICITY":0.0001542,"INCLINATION":87.9006,"RA_OF_ASC_NODE":248.4004,"ARG_OF_PERICENTER":75.4753,"MEAN_ANOMALY":284.6549,"EPHEMERIS_TYPE":0,"CLASSIFICATION_TYPE":"U","NORAD_CAT_ID":56057,"ELEMENT_SET_NO":999,"REV_AT_EPOCH":14597,"BSTAR":3.4773e-6,"MEAN_MOTION_DOT":1.4e-7,"MEAN_MOTION_DDOT":0},{"OBJECT_NAME":"ONEWEB-0557","OBJECT_ID":"2023-043N","EPOCH":"2026-03-10T12:02:06.012672","MEAN_MOTION":13.1659424,"ECCENTRICITY":5.63e-5,"INCLINATION":87.9007,"RA_OF_ASC_NODE":248.4091,"ARG_OF_PERICENTER":51.6997,"MEAN_ANOMALY":308.4184,"EPHEMERIS_TYPE":0,"CLASSIFICATION_TYPE":"U","NORAD_CAT_ID":56058,"ELEMENT_SET_NO":999,"REV_AT_EPOCH":14597,"BSTAR":9.0486e-5,"MEAN_MOTION_DOT":4.7e-7,"MEAN_MOTION_DDOT":0},{"OBJECT_NAME":"ONEWEB-0558","OBJECT_ID":"2023-043P","EPOCH":"2026-03-10T12:12:31.771584","MEAN_MOTION":13.2182643,"ECCENTRICITY":0.0002146,"INCLINATION":87.9165,"RA_OF_ASC_NODE":263.656,"ARG_OF_PERICENTER":95.6555,"MEAN_ANOMALY":264.4824,"EPHEMERIS_TYPE":0,"CLASSIFICATION_TYPE":"U","NORAD_CAT_ID":56059,"ELEMENT_SET_NO":999,"REV_AT_EPOCH":14520,"BSTAR":9.4487e-5,"MEAN_MOTION_DOT":5.2e-7,"MEAN_MOTION_DDOT":0},{"OBJECT_NAME":"ONEWEB-0559","OBJECT_ID":"2023-043Q","EPOCH":"2026-03-10T11:55:55.719552","MEAN_MOTION":13.21823501,"ECCENTRICITY":0.0001832,"INCLINATION":87.9164,"RA_OF_ASC_NODE":263.6522,"ARG_OF_PERICENTER":99.1763,"MEAN_ANOMALY":260.9579,"EPHEMERIS_TYPE":0,"CLASSIFICATION_TYPE":"U","NORAD_CAT_ID":56060,"ELEMENT_SET_NO":999,"REV_AT_EPOCH":14521,"BSTAR":-0.00014531,"MEAN_MOTION_DOT":-4.7e-7,"MEAN_MOTION_DDOT":0}]
